STARLINK-2166           
1 48558U 21041F   23338.02205079  .00035025  00000+0  23564-2 0  9998
2 48558  53.0549 242.6722 0001737 134.4107 225.7024 15.06434306139749
STARLINK-2167           
1 48559U 21041G   23338.13634333  .00028584  00000+0  19305-2 0  9990
2 48559  53.0536 242.2845 0001711 104.2629 255.8550 15.06391507140615
STARLINK-2186           
1 48561U 21041J   23337.94007691  .00006599  00000+0  46153-3 0  9996
2 48561  53.0545 213.3220 0001779 114.0990 246.0185 15.06397631141013
STARLINK-2187           
1 48562U 21041K   23338.13263066  .00017012  00000+0  11575-2 0  9990
2 48562  53.0542 242.1805 0001377  80.5332 279.5812 15.06422175140627
STARLINK-2188           
1 48563U 21041L   23338.01836428  .00006440  00000+0  45075-3 0  9992
2 48563  53.0535 242.6904 0000999  91.8408 268.2695 15.06403851140605
STARLINK-2190           
1 48564U 21041M   23338.01099936  .00021602  00000+0  14637-2 0  9994
2 48564  53.0537 242.7241 0001903  60.3067 299.8111 15.06424988140608
STARLINK-2191           
1 48565U 21041N   23338.11822440 -.00034981  00000+0 -23100-2 0  9991
2 48565  53.0534 242.0151 0001750 133.5802 226.5332 15.06891837140624
STARLINK-2214           
1 48566U 21041P   23338.09485320  .00028765  00000+0  19412-2 0  9993
2 48566  53.0530 252.3223 0001427  74.7691 285.3455 15.06418033140473
STARLINK-2215           
1 48567U 21041Q   23338.04325697  .00038115  00000+0  25649-2 0  9998
2 48567  53.0544 252.5767 0001788  83.4307 276.6885 15.06385464140465
STARLINK-2217           
1 48568U 21041R   23338.12158059  .00022698  00000+0  15371-2 0  9994
2 48568  53.0524 242.2328 0001236  99.5801 260.5328 15.06416529140616
STARLINK-2219           
1 48569U 21041S   23338.01468098  .00019973  00000+0  13560-2 0  9990
2 48569  53.0532 242.7075 0001689  79.8954 280.2225 15.06398205140606
STARLINK-2220           
1 48570U 21041T   23338.00270105  .00018275  00000+0  12421-2 0  9990
2 48570  53.0542 252.7584 0001663 116.7452 243.3707 15.06415059140456
STARLINK-2221           
1 48571U 21041U   23338.20912468  .00015743  00000+0  10733-2 0  9999
2 48571  53.0529 251.8382 0001514  68.8353 291.2798 15.06403095140493
STARLINK-2222           
1 48572U 21041V   23338.13908551  .00020524  00000+0  13921-2 0  9995
2 48572  53.0531 252.1415 0001800 131.8051 228.3092 15.06417240140486
STARLINK-2224           
1 48573U 21041W   23338.11789142  .00023800  00000+0  16105-2 0  9994
2 48573  53.0522 242.2478 0001107 146.0810 214.0250 15.06417575140611
STARLINK-2225           
1 48574U 21041X   23338.61826769  .00005062  00000+0  35855-3 0  9991
2 48574  53.0523 210.0871 0001342  76.3781 283.7357 15.06393652141112
STARLINK-2227           
1 48575U 21041Y   23338.63396092  .00011015  00000+0  75694-3 0  9995
2 48575  53.0521 200.2452 0001689  76.4333 283.6844 15.06413133141268
STARLINK-2228           
1 48576U 21041Z   23338.63438342  .00011539  00000+0  79193-3 0  9990
2 48576  53.0530 214.9270 0001698  97.5777 262.5405 15.06415331141053
STARLINK-2231           
1 48577U 21041AA  23338.12424967  .00015226  00000+0  10384-2 0  9996
2 48577  53.0539 241.6659 0001485  75.7083 284.4071 15.06415218140621
STARLINK-2232           
1 48578U 21041AB  23338.14006546  .00020692  00000+0  14029-2 0  9991
2 48578  53.0531 242.6575 0001362  98.4438 261.6705 15.06428505140615
STARLINK-2233           
1 48579U 21041AC  23338.03309775  .00034337  00000+0  23091-2 0  9990
2 48579  53.0537 242.6283 0001443  73.3496 286.7652 15.06460489140609
STARLINK-2234           
1 48580U 21041AD  23337.93406083  .00004250  00000+0  30418-3 0  9993
2 48580  53.0525 218.0822 0001354  88.2777 271.8367 15.06383204140946
STARLINK-2235           
1 48581U 21041AE  23338.02711470  .00001684  00000+0  13189-3 0  9998
2 48581  53.0524 207.6625 0001482  93.8099 266.3059 15.06399565141105
STARLINK-2236           
1 48582U 21041AF  23338.07506162  .00004530  00000+0  32287-3 0  9997
2 48582  53.0531 207.6022 0001415  76.2393 283.8753 15.06389539141108
STARLINK-2237           
1 48583U 21041AG  23338.08010967  .00018987  00000+0  12896-2 0  9996
2 48583  53.0534 252.4165 0001479 117.5936 242.5204 15.06415065140476
STARLINK-2238           
1 48584U 21041AH  23338.18701075  .00021147  00000+0  14338-2 0  9990
2 48584  53.0540 251.9347 0001694  71.1953 288.9219 15.06413277140487
STARLINK-2240           
1 48585U 21041AJ  23338.19805906  .00012828  00000+0  87815-3 0  9997
2 48585  53.0542 251.8827 0001631  70.9436 289.1730 15.06414344140483
STARLINK-2241           
1 48586U 21041AK  23338.19068609  .00018001  00000+0  12233-2 0  9999
2 48586  53.0530 251.9198 0001447  89.1796 270.9359 15.06429531140488
STARLINK-2242           
1 48587U 21041AL  23338.06167610  .00033664  00000+0  22660-2 0  9995
2 48587  53.0553 252.4926 0001180  95.2840 264.8284 15.06434545140469
STARLINK-2244           
1 48588U 21041AM  23338.11052666  .00025431  00000+0  17190-2 0  9991
2 48588  53.0531 242.3182 0001621 117.8873 242.2280 15.06421890140617
STARLINK-2245           
1 48589U 21041AN  23338.03680308  .00013764  00000+0  94173-3 0  9996
2 48589  53.0533 242.6086 0001661 105.9460 254.1712 15.06375768140603
STARLINK-2248           
1 48591U 21041AQ  23337.97415700  .00019314  00000+0  13120-2 0  9992
2 48591  53.0534 243.0952 0001229 101.3491 258.7636 15.06398007141492
STARLINK-2249           
1 48592U 21041AR  23338.05062963  .00011281  00000+0  77515-3 0  9996
2 48592  53.0547 252.7755 0001354  99.7587 260.3555 15.06393373140466
STARLINK-2250           
1 48593U 21041AS  23338.03588708  .00015611  00000+0  10647-2 0  9998
2 48593  53.0537 252.6146 0001914  58.7258 301.3918 15.06396046140460
STARLINK-2251           
1 48594U 21041AT  23337.99811221  .00019026  00000+0  12927-2 0  9999
2 48594  53.0519 222.8720 0001294  97.7217 262.3919 15.06401488140887
STARLINK-2252           
1 48595U 21041AU  23338.08380909  .00022904  00000+0  15531-2 0  9998
2 48595  53.0538 252.4021 0001721  66.0729 294.0440 15.06361706141749
STARLINK-2253           
1 48596U 21041AV  23338.03956371  .00025687  00000+0  17358-2 0  9996
2 48596  53.0532 252.5966 0001392  91.8484 268.2664 15.06426870140925
STARLINK-2255           
1 48597U 21041AW  23337.91421179  .00012998  00000+0  88968-3 0  9993
2 48597  53.0536 253.1587 0001385  98.2770 261.8376 15.06408802141719
STARLINK-2256           
1 48598U 21041AX  23338.02521539  .00050784  00000+0  31129-3 0  9990
2 48598  53.0539 238.8606 0001587  42.2460 317.8681 15.76808475141116
STARLINK-2274           
1 48599U 21041AY  23338.07688820  .00019561  00000+0  13281-2 0  9999
2 48599  53.0524 227.4296 0001364  78.9170 281.1973 15.06410207142097
STARLINK-2275           
1 48600U 21041AZ  23338.04786153  .00033509  00000+0  22597-2 0  9995
2 48600  53.0528 242.5582 0001488 141.7416 218.3679 15.06368998141878
STARLINK-2713           
1 48602U 21041BB  23338.11006044  .00021974  00000+0  14888-2 0  9996
2 48602  53.0529 227.2810 0001382  99.6007 260.5138 15.06417153142086
STARLINK-2714           
1 48603U 21041BC  23338.08930704  .00015240  00000+0  10397-2 0  9992
2 48603  53.0525 222.3706 0001367  70.3511 289.7626 15.06403545142166
STARLINK-2757           
1 48604U 21041BD  23338.09117410  .00019409  00000+0  13180-2 0  9999
2 48604  53.0532 252.3648 0001341  64.6923 295.4204 15.06407567141745
FALCON 9 DEB            
1 48607U 21041BG  23338.27542662  .00002430  00000+0  20786-3 0  9990
2 48607  53.0379 297.3942 0012340 195.5533 164.5076 15.01223161139814
FALCON 9 DEB            
1 48608U 21041BH  23338.14233916  .00004301  00000+0  35205-3 0  9997
2 48608  53.0339 302.4543 0011293 208.5763 151.4606 15.01186858139727
FALCON 9 DEB            
1 48609U 21041BJ  23338.09766726  .00004711  00000+0  37762-3 0  9997
2 48609  53.0307 296.3255 0010788 191.1423 168.9326 15.01801158139800
FALCON 9 DEB            
1 48610U 21041BK  23338.20269991  .00004032  00000+0  31898-3 0  9994
2 48610  53.0282 292.6888 0013202 191.4246 168.6443 15.02649106139862
STARLINK-2758           
1 48638U 21044A   23338.10911962  .00043419  00000+0  29155-2 0  9992
2 48638  53.0535 227.2833 0001552  87.0244 273.0923 15.06405167139191
STARLINK-2739           
1 48639U 21044B   23338.09531526  .00016608  00000+0  11308-2 0  9996
2 48639  53.0514 227.3565 0001173 108.8405 251.2711 15.06414350139199
STARLINK-2736           
1 48640U 21044C   23338.02163120  .00019076  00000+0  12958-2 0  9996
2 48640  53.0519 227.9587 0001379 101.8470 258.2673 15.06408596139176
STARLINK-2754           
1 48641U 21044D   23338.10038751  .00018269  00000+0  12417-2 0  9990
2 48641  53.0523 232.3259 0001202 104.3320 255.7802 15.06414690139128
STARLINK-2646           
1 48642U 21044E   23337.98243749  .00021973  00000+0  14885-2 0  9998
2 48642  53.0535 232.8596 0002354  62.9673 297.1556 15.06422873139106
STARLINK-2704           
1 48643U 21044F   23338.09575112  .00019298  00000+0  13104-2 0  9994
2 48643  53.0520 232.3396 0001153 111.3464 248.7648 15.06413674139122
STARLINK-2695           
1 48644U 21044G   23338.09300081  .00015560  00000+0  10603-2 0  9995
2 48644  53.0536 232.3578 0001520 109.3639 250.7514 15.06431897139123
STARLINK-2733           
1 48645U 21044H   23338.08932708  .00018848  00000+0  12805-2 0  9990
2 48645  53.0525 232.3745 0001365 105.9031 254.2108 15.06409086139126
STARLINK-2732           
1 48646U 21044J   23338.01929000  .00006569  00000+0  45944-3 0  9993
2 48646  53.0529 232.6869 0001465  99.4674 260.6481 15.06403616139119
STARLINK-2691           
1 48647U 21044K   23338.08195475  .00018394  00000+0  12501-2 0  9993
2 48647  53.0529 232.4076 0001728 105.0398 255.0783 15.06413477139127
STARLINK-2521           
1 48648U 21044L   23338.09671392  .00004412  00000+0  31496-3 0  9993
2 48648  53.0545 232.5022 0001542 101.5228 258.5934 15.06396771139128
